NORAD_CAT_ID,OBJECT_NAME,OBJECT_TYPE,EPOCH,MEAN_MOTION,ECCENTRICITY,INCLINATION,RA_OF_ASC_NODE,ARG_OF_PERICENTER,MEAN_ANOMALY,BSTAR,MEAN_MOTION_DOT,MEAN_MOTION_DDOT,TLE_LINE0,TLE_LINE1,TLE_LINE2,SEMIMAJOR_AXIS,PERIOD,APOGEE,PERIGEE,DECAYED
52614.0,STARLINK-3982,PAYLOAD,2024-07-18 22:47:18,15.08839687,0.0001431,53.2172,76.9726,104.8533,255.2618,2.8814e-05,1.71e-06,0.0,0 STARLINK-3982,1 52614U 22052S   24200.94951942  .00000171  00000-0  28814-4 0  9996,2 52614  53.2172  76.9726 0001431 104.8533 255.2618 15.08839687120603,6917.881,95.438,540.736,538.756,0.0
52614.0,STARLINK-3982,PAYLOAD,2024-07-19 01:58:04,15.08841225,0.0001382,53.217,76.3734,101.7292,258.3856,0.00021308,3.105e-05,0.0,0 STARLINK-3982,1 52614U 22052S   24201.08200013  .00003105  00000-0  21308-3 0  9998,2 52614  53.2170  76.3734 0001382 101.7292 258.3856 15.08841225120998,6917.877,95.437,540.698,538.786,0.0
52614.0,STARLINK-3982,PAYLOAD,2024-07-19 08:19:37,15.08847898,0.0001334,53.2172,75.1857,100.7375,259.3767,0.0003518,5.317e-05,0.0,0 STARLINK-3982,1 52614U 22052S   24201.34695818  .00005317  00000-0  35180-3 0  9998,2 52614  53.2172  75.1857 0001334 100.7375 259.3767 15.08847898120669,6917.856,95.437,540.644,538.798,0.0
52614.0,STARLINK-3982,PAYLOAD,2024-07-19 22:38:04,15.08864246,0.0001187,53.2165,72.514,89.0126,271.1002,0.00062023,9.603e-05,0.0,0 STARLINK-3982,1 52614U 22052S   24201.94311120  .00009603  00000-0  62023-3 0  9993,2 52614  53.2165  72.5140 0001187  89.0126 271.1002 15.08864246120756,6917.806,95.436,540.492,538.85,0.0
52614.0,STARLINK-3982,PAYLOAD,2024-07-20 00:13:27,15.08870184,0.0001361,53.2167,72.2158,89.5312,270.5836,0.00076436,0.00011908,0.0,0 STARLINK-3982,1 52614U 22052S   24202.00934922  .00011908  00000-0  76436-3 0  9996,2 52614  53.2167  72.2158 0001361  89.5312 270.5836 15.08870184121139,6917.788,95.436,540.595,538.712,0.0
52614.0,STARLINK-3982,PAYLOAD,2024-07-20 08:10:23,15.08843134,0.0001804,53.2167,70.7255,85.5785,274.5414,-0.00021354,-3.685e-05,0.0,0 STARLINK-3982,1 52614U 22052S   24202.34055295 -.00003685  00000-0 -21354-3 0  9994,2 52614  53.2167  70.7255 0001804  85.5785 274.5414 15.08843134121188,6917.871,95.437,540.984,538.488,0.0
52614.0,STARLINK-3982,PAYLOAD,2024-07-20 22:28:52,15.08836218,0.0001484,53.2165,68.0511,93.7953,266.3209,-0.00016657,-2.938e-05,0.0,0 STARLINK-3982,1 52614U 22052S   24202.93671481 -.00002938  00000-0 -16657-3 0  9990,2 52614  53.2165  68.0511 0001484  93.7953 266.3209 15.08836218120908,6917.892,95.438,540.784,538.73,0.0
52614.0,STARLINK-3982,PAYLOAD,2024-07-21 00:04:14,15.08846861,0.0001202,53.2163,67.7525,108.7485,251.3638,0.00010575,1.396e-05,0.0,0 STARLINK-3982,1 52614U 22052S   24203.00295000  .00001396  00000-0  10575-3 0  9996,2 52614  53.2163  67.7525 0001202 108.7485 251.3638 15.08846861121289,6917.859,95.437,540.556,538.893,0.0
52614.0,STARLINK-3982,PAYLOAD,2024-07-21 20:44:15,15.08841323,0.0001389,53.2153,63.8871,103.7506,256.3641,0.00025315,3.743e-05,0.0,0 STARLINK-3982,1 52614U 22052S   24203.86407345  .00003743  00000-0  25315-3 0  9993,2 52614  53.2153  63.8871 0001389 103.7506 256.3641 15.08841323121416,6917.876,95.437,540.702,538.78,0.0
52614.0,STARLINK-3982,PAYLOAD,2024-07-21 22:19:39,15.08848549,0.0001379,53.216,63.5908,84.8947,275.2202,0.00053114,8.177e-05,0.0,0 STARLINK-3982,1 52614U 22052S   24203.93031350  .00008177  00000-0  53114-3 0  9994,2 52614  53.2160  63.5908 0001379  84.8947 275.2202 15.08848549121059,6917.854,95.437,540.673,538.765,0.0
52614.0,STARLINK-3982,PAYLOAD,2024-07-21 23:55:02,15.08853195,0.0001464,53.2162,63.291,104.886,255.2294,0.00064932,0.00010065,0.0,0 STARLINK-3982,1 52614U 22052S   24203.99655137  .00010065  00000-0  64932-3 0  9994,2 52614  53.2162  63.2910 0001464 104.8860 255.2294 15.08853195121437,6917.84,95.437,540.718,538.692,0.0
52614.0,STARLINK-3982,PAYLOAD,2024-07-22 22:10:26,15.08827663,0.00014,53.2156,59.1249,136.4479,223.6624,0.00020086,2.909e-05,0.0,0 STARLINK-3982,1 52614U 22052S   24204.92391880  .00002909  00000-0  20086-3 0  9990,2 52614  53.2156  59.1249 0001400 136.4479 223.6624 15.08827663121208,6917.918,95.438,540.752,538.815,0.0
52614.0,STARLINK-3982,PAYLOAD,2024-07-22 23:45:49,15.08825043,0.0001459,53.2163,58.826,139.6219,220.4882,-6.6133e-06,-3.93e-06,0.0,0 STARLINK-3982,1 52614U 22052S   24204.99015893 -.00000393  00000-0 -66133-5 0  9996,2 52614  53.2163  58.8260 0001459 139.6219 220.4882 15.08825043121588,6917.926,95.439,540.8,538.782,0.0
52614.0,STARLINK-3982,PAYLOAD,2024-07-23 23:36:37,15.08837474,0.0001131,53.2164,54.369,140.6223,219.4852,0.00037882,5.746e-05,0.0,0 STARLINK-3982,1 52614U 22052S   24205.98376357  .00005746  00000-0  37882-3 0  9993,2 52614  53.2164  54.3690 0001131 140.6223 219.4852 15.08837474121734,6917.888,95.438,540.536,538.971,0.0
52614.0,STARLINK-3982,PAYLOAD,2024-07-25 13:45:53,15.08834279,0.0001089,53.2158,47.2341,85.544,274.5677,6.6574e-05,7.72e-06,0.0,0 STARLINK-3982,1 52614U 22052S   24207.57353211  .00000772  00000-0  66574-4 0  9999,2 52614  53.2158  47.2341 0001089  85.5440 274.5677 15.08834279121974,6917.898,95.438,540.516,539.01,0.0
52614.0,STARLINK-3982,PAYLOAD,2024-07-26 05:39:44,15.08851773,0.0001193,53.2167,44.2607,72.7759,287.3364,0.00026184,3.883e-05,0.0,0 STARLINK-3982,1 52614U 22052S   24208.23592679  .00003883  00000-0  26184-3 0  9994,2 52614  53.2167  44.2607 0001193  72.7759 287.3364 15.08851773122078,6917.844,95.437,540.535,538.884,0.0
52614.0,STARLINK-3982,PAYLOAD,2024-07-26 19:58:12,15.08840503,0.000131,53.2172,41.5847,74.663,285.4507,-0.00016425,-2.901e-05,0.0,0 STARLINK-3982,1 52614U 22052S   24208.83208645 -.00002901  00000-0 -16425-3 0  9996,2 52614  53.2172  41.5847 0001310  74.6630 285.4507 15.08840503122167,6917.879,95.438,540.65,538.838,0.0
52614.0,STARLINK-3982,PAYLOAD,2024-07-26 21:33:35,15.08842071,0.0001418,53.216,41.2868,76.9005,283.2145,-0.00024655,-4.21e-05,0.0,0 STARLINK-3982,1 52614U 22052S   24208.89832557 -.00004210  00000-0 -24655-3 0  9996,2 52614  53.2160  41.2868 0001418  76.9005 283.2145 15.08842071121800,6917.874,95.437,540.72,538.758,0.0
52614.0,STARLINK-3982,PAYLOAD,2024-07-27 11:52:04,15.0882406,0.0001494,53.2139,38.6115,82.132,277.9841,-0.00052409,-8.616e-05,0.0,0 STARLINK-3982,1 52614U 22052S   24209.49449303 -.00008616  00000-0 -52409-3 0  9998,2 52614  53.2139  38.6115 0001494  82.1320 277.9841 15.08824060122266,6917.929,95.439,540.828,538.761,0.0
52614.0,STARLINK-3982,PAYLOAD,2024-07-28 05:21:18,15.08826137,0.0001645,53.2156,35.3414,84.9603,275.1576,-0.00023591,-4.039e-05,0.0,0 STARLINK-3982,1 52614U 22052S   24210.22313594 -.00004039  00000-0 -23591-3 0  9998,2 52614  53.2156  35.3414 0001645  84.9603 275.1576 15.08826137122377,6917.923,95.438,540.926,538.65,0.0
52614.0,STARLINK-3982,PAYLOAD,2024-07-28 19:39:47,15.08840479,0.0001453,53.217,32.6649,85.7386,274.3772,0.00018453,2.65e-05,0.0,0 STARLINK-3982,1 52614U 22052S   24210.81929494  .00002650  00000-0  18453-3 0  9991,2 52614  53.2170  32.6649 0001453  85.7386 274.3772 15.08840479122461,6917.879,95.438,540.749,538.739,0.0
52614.0,STARLINK-3982,PAYLOAD,2024-07-28 21:15:10,15.08845211,0.0001678,53.2174,32.3667,81.5947,278.5235,0.00040714,6.198e-05,0.0,0 STARLINK-3982,1 52614U 22052S   24210.88553611  .00006198  00000-0  40714-3 0  9998,2 52614  53.2174  32.3667 0001678  81.5947 278.5235 15.08845211122108,6917.864,95.437,540.89,538.569,0.0
52614.0,STARLINK-3982,PAYLOAD,2024-07-29 11:33:38,15.08844312,0.0001328,53.2157,29.6914,112.7446,247.3687,2.0516e-05,3.9e-07,0.0,0 STARLINK-3982,1 52614U 22052S   24211.48169141  .00000039  00000-0  20516-4 0  9993,2 52614  53.2157  29.6914 0001328 112.7446 247.3687 15.08844312122191,6917.867,95.437,540.651,538.814,0.0
52614.0,STARLINK-3982,PAYLOAD,2024-07-29 19:30:33,15.08848488,0.0001259,53.2156,28.206,115.6395,244.4728,0.00014454,2.014e-05,0.0,0 STARLINK-3982,1 52614U 22052S   24211.81288833  .00002014  00000-0  14454-3 0  9998,2 52614  53.2156  28.2060 0001259 115.6395 244.4728 15.08848488122243,6917.854,95.437,540.59,538.848,0.0
52614.0,STARLINK-3982,PAYLOAD,2024-07-30 05:02:52,15.08841265,0.0001628,53.2174,26.4183,84.825,275.2928,-5.908e-05,-1.228e-05,0.0,0 STARLINK-3982,1 52614U 22052S   24212.21033180 -.00001228  00000-0 -59080-4 0  9999,2 52614  53.2174  26.4183 0001628  84.8250 275.2928 15.08841265122673,6917.877,95.437,540.868,538.615,0.0
52614.0,STARLINK-3982,PAYLOAD,2024-07-30 20:56:43,15.0884714,0.0001616,53.2161,23.4482,79.8388,280.2786,0.00049509,7.602e-05,0.0,0 STARLINK-3982,1 52614U 22052S   24212.87273024  .00007602  00000-0  49509-3 0  9998,2 52614  53.2161  23.4482 0001616  79.8388 280.2786 15.08847140122408,6917.859,95.437,540.841,538.606,0.0
52614.0,STARLINK-3982,PAYLOAD,2024-07-31 20:47:31,15.08838489,0.0001605,53.2185,18.9823,105.5604,254.5565,0.00011847,1.598e-05,0.0,0 STARLINK-3982,1 52614U 22052S   24213.86633452  .00001598  00000-0  11847-3 0  9995,2 52614  53.2185  18.9823 0001605 105.5604 254.5565 15.08838489122920,6917.885,95.438,540.86,538.64,0.0
52614.0,STARLINK-3982,PAYLOAD,2024-08-01 04:44:27,15.08842218,0.0001675,53.2192,17.4955,104.7919,255.3259,0.00026874,3.992e-05,0.0,0 STARLINK-3982,1 52614U 22052S   24214.19753525  .00003992  00000-0  26874-3 0  9992,2 52614  53.2192  17.4955 0001675 104.7919 255.3259 15.08842218122604,6917.874,95.437,540.897,538.58,0.0
52614.0,STARLINK-3982,PAYLOAD,2024-08-01 20:38:17,15.08858769,0.0001664,53.2194,14.5212,104.5511,255.5666,0.00069791,0.00010842,0.0,0 STARLINK-3982,1 52614U 22052S   24214.85992964  .00010842  00000-0  69791-3 0  9994,2 52614  53.2194  14.5212 0001664 104.5511 255.5666 15.08858769123078,6917.823,95.436,540.839,538.537,0.0
52614.0,STARLINK-3982,PAYLOAD,2024-08-02 10:56:46,15.08839619,0.0001892,53.2189,11.8456,89.6762,270.4447,6.0352e-05,6.72e-06,0.0,0 STARLINK-3982,1 52614U 22052S   24215.45609498  .00000672  00000-0  60352-4 0  9993,2 52614  53.2189  11.8456 0001892  89.6762 270.4447 15.08839619123162,6917.882,95.438,541.055,538.438,0.0
